[Satellite]
VERSION=1.1
NAME=IRIDIUM 161
NICKNAME=IRIDIUM 161
TLE1=1 43478U 18047C   19317.30895613  .00000106  00000-0  25363-4 0  9992
TLE2=2 43478  86.4524  14.7631 0002147  85.7511 274.3935 14.43281317 77832
STATUS=0
